Satellite: SO-50
Catalog number: 27607
Epoch time:      07255.26311855
Element set:    0408
Inclination:      064.5581 deg
RA of node:       180.6490 deg
Eccentricity:    0.0064713
Arg of perigee:   337.6795 deg
Mean anomaly:     022.1499 deg
Mean motion:   14.71284702 rev/day
Decay rate:        5.0e-08 rev/day^2
Epoch rev:           25393
Checksum:              309

Satellite: CO-55
Catalog number: 27844
Epoch time:      07255.65662367
Element set:    0119
Inclination:      098.7212 deg
RA of node:       262.7693 deg
Eccentricity:    0.0009322
Arg of perigee:   195.0590 deg
Mean anomaly:     165.0295 deg
Mean motion:   14.20530704 rev/day
Decay rate:        3.5e-07 rev/day^2
Epoch rev:           21789
Checksum:              315

Satellite: CO-57
Catalog number: 27848
Epoch time:      07255.54752809
Element set:    0078
Inclination:      098.7200 deg
RA of node:       261.8266 deg
Eccentricity:    0.0009167
Arg of perigee:   199.6494 deg
Mean anomaly:     160.4326 deg
Mean motion:   14.20347556 rev/day
Decay rate:        4.2e-07 rev/day^2
Epoch rev:           21785
Checksum:              336

Satellite: AO-51
Catalog number: 28375
Epoch time:      07255.59800407
Element set:    0911
Inclination:      098.1062 deg
RA of node:       290.3837 deg
Eccentricity:    0.0083358
Arg of perigee:   278.3163 deg
Mean anomaly:     080.8588 deg
Mean motion:   14.40579069 rev/day
Decay rate:     -.00000000 rev/day^2
Epoch rev:           16829
Checksum:              321

Satellite: CO-56
Catalog number: 28941
Epoch time:      07255.69982411
Element set:    0564
Inclination:      098.1209 deg
RA of node:       326.7131 deg
Eccentricity:    0.0213370
Arg of perigee:   322.6322 deg
Mean anomaly:     036.0209 deg
Mean motion:   15.43121932 rev/day
Decay rate:     1.1241e-04 rev/day^2
Epoch rev:           08691
Checksum:              289

Satellite: HO-59
Catalog number: 29484
Epoch time:      07256.68974924
Element set:     678
Inclination:      098.2721 deg
RA of node:       320.3057 deg
Eccentricity:    0.0183256
Arg of perigee:   307.1041 deg
Mean anomaly:     051.3508 deg
Mean motion:   15.57765121 rev/day
Decay rate:     2.3949e-04 rev/day^2
Epoch rev:            5482
Checksum:              337

Satellite: NO-60
Catalog number: 29661
Epoch time:      07150.05824307
Element set:     300
Inclination:      051.6186 deg
RA of node:       176.5045 deg
Eccentricity:    0.0007204
Arg of perigee:   190.7749 deg
Mean anomaly:     188.7342 deg
Mean motion:   16.52052832 rev/day
Decay rate:  1.3324117e-01 rev/day^2
Epoch rev:            2554
Checksum:              290

Satellite: NO-61
Catalog number: 29664
Epoch time:      07256.72622471
Element set:     468
Inclination:      051.6312 deg
RA of node:       343.6754 deg
Eccentricity:    0.0011130
Arg of perigee:   339.4835 deg
Mean anomaly:     020.5724 deg
Mean motion:   15.98083528 rev/day
Decay rate:     4.2311e-04 rev/day^2
Epoch rev:            4228
Checksum:              298

Satellite: CP4
Catalog number: 31122
Epoch time:      07255.73070230
Element set:    0136
Inclination:      098.0793 deg
RA of node:       326.1492 deg
Eccentricity:    0.0087122
Arg of perigee:   113.7883 deg
Mean anomaly:     247.2446 deg
Mean motion:   14.55032226 rev/day
Decay rate:       5.51e-06 rev/day^2
Epoch rev:           02158
Checksum:              273

Satellite: CP3
Catalog number: 31128
Epoch time:      07255.70970155
Element set:    0128
Inclination:      098.0767 deg
RA of node:       325.3924 deg
Eccentricity:    0.0104099
Arg of perigee:   115.3452 deg
Mean anomaly:     245.8574 deg
Mean motion:   14.51863596 rev/day
Decay rate:       -4.6e-07 rev/day^2
Epoch rev:           02152
Checksum:              305

Satellite: LIBERT
Catalog number: 31129
Epoch time:      07255.76969784
Element set:    0363
Inclination:      098.0761 deg
RA of node:       325.4625 deg
Eccentricity:    0.0103225
Arg of perigee:   115.2325 deg
Mean anomaly:     245.9609 deg
Mean motion:   14.51956576 rev/day
Decay rate:       3.39e-06 rev/day^2
Epoch rev:           02151
Checksum:              310

/EX
SB KEPS @ AMSAT  $ORB07256.W
Orbital Elements  07256.WEATHER

HR AMSAT ORBITAL ELEMENTS FOR WEATHER SATELLITES
FROM WA5QGD FORT WORTH,TX September 13, 2007
Send Subscribe/unsubscribe to KEPS at 
http://www.amsat.org/mailman/listinfo/keps
BID: ORB07256.W
TO ALL RADIO AMATEURS BT

Satellite: NOAA-10
Catalog number: 16969
Epoch time:      07255.64841487
Element set:    0809
Inclination:      098.7443 deg
RA of node:       272.8786 deg
Eccentricity:    0.0011544
Arg of perigee:   275.1034 deg
Mean anomaly:     084.8834 deg
Mean motion:   14.27333796 rev/day
Decay rate:        8.3e-07 rev/day^2
Epoch rev:           09170
Checksum:              341

Satellite: NOAA-11
Catalog number: 19531
Epoch time:      07255.32746152
Element set:    0838
Inclination:      098.8106 deg
RA of node:       343.4028 deg
Eccentricity:    0.0011953
Arg of perigee:   139.4069 deg
Mean anomaly:     220.7999 deg
Mean motion:   14.14849713 rev/day
Decay rate:      -2.54e-06 rev/day^2
Epoch rev:           97847
Checksum:              333

Satellite: NOAA-12
Catalog number: 21263
Epoch time:      07255.54839079
Element set:    0338
Inclination:      098.7583 deg
RA of node:       252.6660 deg
Eccentricity:    0.0011899
Arg of perigee:   210.8782 deg
Mean anomaly:     149.1724 deg
Mean motion:   14.25492475 rev/day
Decay rate:      -1.05e-06 rev/day^2
Epoch rev:           84869
Checksum:              341

Satellite: MET-3/5
Catalog number: 21655
Epoch time:      07255.91722057
Element set:    0386
Inclination:      082.5567 deg
RA of node:       300.9706 deg
Eccentricity:    0.0013362
Arg of perigee:   355.4730 deg
Mean anomaly:     004.6269 deg
Mean motion:   13.17012312 rev/day
Decay rate:        5.1e-07 rev/day^2
Epoch rev:           77295
Checksum:              291

Satellite: MET-2/21
Catalog number: 22782
Epoch time:      07255.72555987
Element set:    0931
Inclination:      082.5522 deg
RA of node:       332.4756 deg
Eccentricity:    0.0022461
Arg of perigee:   355.2294 deg
Mean anomaly:     004.8659 deg
Mean motion:   13.83616722 rev/day
Decay rate:        2.3e-07 rev/day^2
Epoch rev:           70862
Checksum:              315

Satellite: OKEAN-4
Catalog number: 23317
Epoch time:      07256.73270437
Element set:     370
Inclination:      082.5390 deg
RA of node:       213.9191 deg
Eccentricity:    0.0021174
Arg of perigee:   325.3447 deg
Mean anomaly:     034.6408 deg
Mean motion:   14.82532764 rev/day
Decay rate:       2.44e-06 rev/day^2
Epoch rev:           69717
Checksum:              296

