SO-50
1 27607U 02058C   07255.26311855  .00000005  00000-0  22804-4 0 04087
2 27607 064.5581 180.6490 0064713 337.6795 022.1499 14.71284702253937
CO-55
1 27844U 03031E   07255.65662367  .00000035  00000-0  36745-4 0 01193
2 27844 098.7212 262.7693 0009322 195.0590 165.0295 14.20530704217897
CO-57
1 27848U 03031J   07255.54752809  .00000042  00000-0  39896-4 0 00788
2 27848 098.7200 261.8266 0009167 199.6494 160.4326 14.20347556217855
AO-51
1 28375U 04025K   07255.59800407 -.00000000  00000-0  13018-4 0 09110
2 28375 098.1062 290.3837 0083358 278.3163 080.8588 14.40579069168290
CO-56
1 28941U 06005C   07255.69982411  .00011241  25124-5  11418-3 0 05648
2 28941 098.1209 326.7131 0213370 322.6322 036.0209 15.43121932086919
HO-59
1 29484U 06041F   07256.68974924  .00023949  28129-5  14888-3 0  6787
2 29484 098.2721 320.3057 0183256 307.1041 051.3508 15.57765121 54820
NO-60
1 29661U 06055C   07150.05824307  .13324117  12618-4  10400-3 0  3000
2 29661 051.6186 176.5045 0007204 190.7749 188.7342 16.52052832 25544
NO-61
1 29664U 06055F   07256.72622471  .00042311  12067-4  96271-4 0  4685
2 29664 051.6312 343.6754 0011130 339.4835 020.5724 15.98083528 42285
CP4
1 31122U 07012F   07255.73070230  .00000551  00000-0  13192-3 0 01363
2 31122 098.0793 326.1492 0087122 113.7883 247.2446 14.55032226021580
CP3
1 31128U 07012M   07255.70970155 -.00000046  00000-0  00000-0 0 01283
2 31128 098.0767 325.3924 0104099 115.3452 245.8574 14.51863596021529
LIBERT
1 31129U 07012N   07255.76969784  .00000339  00000-0  89029-4 0 03633
2 31129 098.0761 325.4625 0103225 115.2325 245.9609 14.51956576021511
NOAA-10
1 16969U 86073A   07255.64841487  .00000083  00000-0  52196-4 0 08094
2 16969 098.7443 272.8786 0011544 275.1034 084.8834 14.27333796091702
NOAA-11
1 19531U 88089A   07255.32746152 -.00000254  00000-0 -10870-3 0 08385
2 19531 098.8106 343.4028 0011953 139.4069 220.7999 14.14849713978473
NOAA-12
1 21263U 91032A   07255.54839079 -.00000105  00000-0 -25542-4 0 03380
2 21263 098.7583 252.6660 0011899 210.8782 149.1724 14.25492475848695
MET-3/5
1 21655U 91056A   07255.91722057  .00000051  00000-0  10000-3 0 03862
2 21655 082.5567 300.9706 0013362 355.4730 004.6269 13.17012312772959
MET-2/21
1 22782U 93055A   07255.72555987  .00000023  00000-0  71120-5 0 09317
2 22782 082.5522 332.4756 0022461 355.2294 004.8659 13.83616722708626
OKEAN-4
1 23317U 94066A   07256.73270437  .00000244  00000-0  27355-4 0  3703
2 23317 082.5390 213.9191 0021174 325.3447 034.6408 14.82532764697171
